{"type": "FeatureCollection", "features": [ {"type": "Feature", "properties": {"norad_id": 57401, "name": "TIANMU-1 09", "group": "weather", "lat": 65.66251305334616, "lon": -125.60143831052171, "alt_km": 471.27690287148926, "timestamp": "2025-12-14T20:40:31.410600+00:00", "meta": {"OBJECT_NAME": "TIANMU-1 09", "OBJECT_ID": "2023-101C", "EPOCH": "2025-12-14T09:10:52.031424", "MEAN_MOTION": 15.2811691, "ECCENTRICITY": 0.00067525, "INCLINATION": 97.2827, "RA_OF_ASC_NODE": 37.5065, "ARG_OF_PERICENTER": 79.3586, "MEAN_ANOMALY": 280.8414, "EPHEMERIS_TYPE": 0, "CLASSIFICATION_TYPE": "U", "NORAD_CAT_ID": 57401, "ELEMENT_SET_NO": 999, "REV_AT_EPOCH": 13340, "BSTAR": 0.00030032021, "MEAN_MOTION_DOT": 8.166e-05, "MEAN_MOTION_DDOT": 0}, "tle": {"line1": "1 57401U 23101C   25348.38254666  .00008166  00000+0  30032-3 0  9997", "line2": "2 57401  97.2827  37.5065 0006752  79.3586 280.8414 15.28116910133400"}}, "geometry": {"type": "Point", "coordinates": [-125.60143831052171, 65.66251305334616]}}, {"type": "Feature", "properties": {"norad_id": 57402, "name": "TIANMU-1 10", "group": "weather", "lat": -73.3801289760408, "lon": 64.22559137649273, "alt_km": 493.91764843076817, "timestamp": "2025-12-14T20:40:31.410610+00:00", "meta": {"OBJECT_NAME": "TIANMU-1 10", "OBJECT_ID": "2023-101D", "EPOCH": "2025-12-14T08:25:51.206304", "MEAN_MOTION": 15.28107952, "ECCENTRICITY": 0.0008488, "INCLINATION": 97.2907, "RA_OF_ASC_NODE": 38.3275, "ARG_OF_PERICENTER": 78.8407, "MEAN_ANOMALY": 281.3787, "EPHEMERIS_TYPE": 0, "CLASSIFICATION_TYPE": "U", "NORAD_CAT_ID": 57402, "ELEMENT_SET_NO": 999, "REV_AT_EPOCH": 13339, "BSTAR": 0.00032272028, "MEAN_MOTION_DOT": 8.782e-05, "MEAN_MOTION_DDOT": 0}, "tle": {"line1": "1 57402U 23101D   25348.35128711  .00008782  00000+0  32272-3 0  9998", "line2": "2 57402  97.2907  38.3275 0008488  78.8407 281.3787 15.28107952133399"}}, "geometry": {"type": "Point", "coordinates": [64.22559137649273, -73.3801289760408]}}, {"type": "Feature", "properties": {"norad_id": 57490, "name": "FENGYUN 3F", "group": "weather", "lat": 76.48919364926422, "lon": 17.48759913744185, "alt_km": 818.0189563897657, "timestamp": "2025-12-14T20:40:31.410622+00:00", "meta": {"OBJECT_NAME": "FENGYUN 3F", "OBJECT_ID": "2023-111A", "EPOCH": "2025-12-14T08:27:47.621664", "MEAN_MOTION": 14.19894058, "ECCENTRICITY": 6.783e-05, "INCLINATION": 98.7082, "RA_OF_ASC_NODE": 56.62, "ARG_OF_PERICENTER": 105.1481, "MEAN_ANOMALY": 254.9771, "EPHEMERIS_TYPE": 0, "CLASSIFICATION_TYPE": "U", "NORAD_CAT_ID": 57490, "ELEMENT_SET_NO": 999, "REV_AT_EPOCH": 12263, "BSTAR": 7.1303366e-05, "MEAN_MOTION_DOT": 1.08e-06, "MEAN_MOTION_DDOT": 0}, "tle": {"line1": "1 57490U 23111A   25348.35263451  .00000108  00000+0  71303-4 0  9990", "line2": "2 57490  98.7082  56.6200 0000678 105.1481 254.9771 14.19894058122639"}}, "geometry": {"type": "Point", "coordinates": [17.48759913744185, 76.48919364926422]}}, {"type": "Feature", "properties": {"norad_id": 58584, "name": "ARKTIKA-M 2", "group": "weather", "lat": 33.949086758177444, "lon": -165.46772306310788, "alt_km": 19033.765650777175, "timestamp": "2025-12-14T20:40:31.410634+00:00", "meta": {"OBJECT_NAME": "ARKTIKA-M 2", "OBJECT_ID": "2023-198A", "EPOCH": "2025-12-08T20:10:13.977120", "MEAN_MOTION": 2.0060476, "ECCENTRICITY": 0.68646991, "INCLINATION": 63.2247, "RA_OF_ASC_NODE": 175.3152, "ARG_OF_PERICENTER": 268.1185, "MEAN_ANOMALY": 18.8267, "EPHEMERIS_TYPE": 0, "CLASSIFICATION_TYPE": "U", "NORAD_CAT_ID": 58584, "ELEMENT_SET_NO": 999, "REV_AT_EPOCH": 1450, "BSTAR": 0, "MEAN_MOTION_DOT": 1.66e-06, "MEAN_MOTION_DDOT": 0}, "tle": {"line1": "1 58584U 23198A   25342.84043955  .00000166  00000+0  00000+0 0  9998", "line2": "2 58584  63.2247 175.3152 6864699 268.1185  18.8267  2.00604760 14506"}}, "geometry": {"type": "Point", "coordinates": [-165.46772306310788, 33.949086758177444]}}, {"type": "Feature", "properties": {"norad_id": 58645, "name": "TIANMU-1 11", "group": "weather", "lat": 75.68203126395828, "lon": -21.984040105952307, "alt_km": 488.56355763758074, "timestamp": "2025-12-14T20:40:31.410648+00:00", "meta": {"OBJECT_NAME": "TIANMU-1 11", "OBJECT_ID": "2023-205A", "EPOCH": "2025-12-14T07:44:04.357824", "MEAN_MOTION": 15.24626016, "ECCENTRICITY": 0.00077954, "INCLINATION": 97.3611, "RA_OF_ASC_NODE": 7.9179, "ARG_OF_PERICENTER": 303.8873, "MEAN_ANOMALY": 56.1622, "EPHEMERIS_TYPE": 0, "CLASSIFICATION_TYPE": "U", "NORAD_CAT_ID": 58645, "ELEMENT_SET_NO": 999, "REV_AT_EPOCH": 10933, "BSTAR": 0.00028785324, "MEAN_MOTION_DOT": 7.038e-05, "MEAN_MOTION_DDOT": 0}, "tle": {"line1": "1 58645U 23205A   25348.32227266  .00007038  00000+0  28785-3 0  9992", "line2": "2 58645  97.3611   7.9179 0007795 303.8873  56.1622 15.24626016109331"}}, "geometry": {"type": "Point", "coordinates": [-21.984040105952307, 75.68203126395828]}}, {"type": "Feature", "properties": {"norad_id": 58646, "name": "TIANMU-1 12", "group": "weather", "lat": -69.73630939396298, "lon": 28.746098062698767, "alt_km": 495.5641970889019, "timestamp": "2025-12-14T20:40:31.410659+00:00", "meta": {"OBJECT_NAME": "TIANMU-1 12", "OBJECT_ID": "2023-205B", "EPOCH": "2025-12-14T08:23:03.115968", "MEAN_MOTION": 15.24509282, "ECCENTRICITY": 0.00058234, "INCLINATION": 97.3598, "RA_OF_ASC_NODE": 7.7495, "ARG_OF_PERICENTER": 284.0529, "MEAN_ANOMALY": 76.0061, "EPHEMERIS_TYPE": 0, "CLASSIFICATION_TYPE": "U", "NORAD_CAT_ID": 58646, "ELEMENT_SET_NO": 999, "REV_AT_EPOCH": 10932, "BSTAR": 0.00031090947, "MEAN_MOTION_DOT": 7.579e-05, "MEAN_MOTION_DDOT": 0}, "tle": {"line1": "1 58646U 23205B   25348.34934162  .00007579  00000+0  31091-3 0  9999", "line2": "2 58646  97.3598   7.7495 0005823 284.0529  76.0061 15.24509282109325"}}, "geometry": {"type": "Point", "coordinates": [28.746098062698767, -69.73630939396298]}}, {"type": "Feature", "properties": {"norad_id": 58647, "name": "TIANMU-1 13", "group": "weather", "lat": 73.06471297098388, "lon": -146.41715485071603, "alt_km": 488.8063949995794, "timestamp": "2025-12-14T20:40:31.410669+00:00", "meta": {"OBJECT_NAME": "TIANMU-1 13", "OBJECT_ID": "2023-205C", "EPOCH": "2025-12-14T07:36:46.746144", "MEAN_MOTION": 15.24552275, "ECCENTRICITY": 0.00060353, "INCLINATION": 97.3626, "RA_OF_ASC_NODE": 7.9195, "ARG_OF_PERICENTER": 259.9446, "MEAN_ANOMALY": 100.1111, "EPHEMERIS_TYPE": 0, "CLASSIFICATION_TYPE": "U", "NORAD_CAT_ID": 58647, "ELEMENT_SET_NO": 999, "REV_AT_EPOCH": 10931, "BSTAR": 0.00029074074, "MEAN_MOTION_DOT": 7.092e-05, "MEAN_MOTION_DDOT": 0}, "tle": {"line1": "1 58647U 23205C   25348.31720771  .00007092  00000+0  29074-3 0  9994", "line2": "2 58647  97.3626   7.9195 0006035 259.9446 100.1111 15.24552275109316"}}, "geometry": {"type": "Point", "coordinates": [-146.41715485071603, 73.06471297098388]}}, {"type": "Feature", "properties": {"norad_id": 58648, "name": "TIANMU-1 14", "group": "weather", "lat": -16.121271388064592, "lon": -174.33875476770612, "alt_km": 495.30032325473985, "timestamp": "2025-12-14T20:40:31.410679+00:00", "meta": {"OBJECT_NAME": "TIANMU-1 14", "OBJECT_ID": "2023-205D", "EPOCH": "2025-12-14T08:47:24.846720", "MEAN_MOTION": 15.2453614, "ECCENTRICITY": 0.00068352, "INCLINATION": 97.3558, "RA_OF_ASC_NODE": 7.3149, "ARG_OF_PERICENTER": 265.5651, "MEAN_ANOMALY": 94.4806, "EPHEMERIS_TYPE": 0, "CLASSIFICATION_TYPE": "U", "NORAD_CAT_ID": 58648, "ELEMENT_SET_NO": 999, "REV_AT_EPOCH": 10932, "BSTAR": 0.00028477581, "MEAN_MOTION_DOT": 6.942e-05, "MEAN_MOTION_DDOT": 0}, "tle": {"line1": "1 58648U 23205D   25348.36625980  .00006942  00000+0  28478-3 0  9996", "line2": "2 58648  97.3558   7.3149 0006835 265.5651  94.4806 15.24536140109323"}}, "geometry": {"type": "Point", "coordinates": [-174.33875476770612, -16.121271388064592]}}, {"type": "Feature", "properties": {"norad_id": 58660, "name": "TIANMU-1 19", "group": "weather", "lat": 62.36445147079627, "lon": -65.65606345685964, "alt_km": 477.76134121198993, "timestamp": "2025-12-14T20:40:31.410696+00:00", "meta": {"OBJECT_NAME": "TIANMU-1 19", "OBJECT_ID": "2023-208A", "EPOCH": "2025-12-14T07:35:30.911136", "MEAN_MOTION": 15.27888997, "ECCENTRICITY": 0.00041446, "INCLINATION": 97.4384, "RA_OF_ASC_NODE": 99.35, "ARG_OF_PERICENTER": 245.6207, "MEAN_ANOMALY": 114.46, "EPHEMERIS_TYPE": 0, "CLASSIFICATION_TYPE": "U", "NORAD_CAT_ID": 58660, "ELEMENT_SET_NO": 999, "REV_AT_EPOCH": 10906, "BSTAR": 0.00037995314, "MEAN_MOTION_DOT": 0.00010275, "MEAN_MOTION_DDOT": 0}, "tle": {"line1": "1 58660U 23208A   25348.31632999  .00010275  00000+0  37995-3 0  9994", "line2": "2 58660  97.4384  99.3500 0004144 245.6207 114.4600 15.27888997109063"}}, "geometry": {"type": "Point", "coordinates": [-65.65606345685964, 62.36445147079627]}}, {"type": "Feature", "properties": {"norad_id": 58661, "name": "TIANMU-1 20", "group": "weather", "lat": -19.878488723901253, "lon": -82.36171867054102, "alt_km": 481.4701523494832, "timestamp": "2025-12-14T20:40:31.410716+00:00", "meta": {"OBJECT_NAME": "TIANMU-1 20", "OBJECT_ID": "2023-208B", "EPOCH": "2025-12-14T07:14:18.549312", "MEAN_MOTION": 15.29079198, "ECCENTRICITY": 0.00063214, "INCLINATION": 97.4322, "RA_OF_ASC_NODE": 99.7844, "ARG_OF_PERICENTER": 259.3553, "MEAN_ANOMALY": 100.6975, "EPHEMERIS_TYPE": 0, "CLASSIFICATION_TYPE": "U", "NORAD_CAT_ID": 58661, "ELEMENT_SET_NO": 999, "REV_AT_EPOCH": 10913, "BSTAR": 0.00035553096, "MEAN_MOTION_DOT": 9.969e-05, "MEAN_MOTION_DDOT": 0}, "tle": {"line1": "1 58661U 23208B   25348.30160358  .00009969  00000+0  35553-3 0  9995", "line2": "2 58661  97.4322  99.7844 0006321 259.3553 100.6975 15.29079198109133"}}, "geometry": {"type": "Point", "coordinates": [-82.36171867054102, -19.878488723901253]}}]}